{
"type": "FeatureCollection",
"name": "sevastopol_beaches(near point)(0002)",
"crs": { "type": "name", "properties": { "name": "urn:ogc:def:crs:OGC:1.3:CRS84" } },
"features": [
{ "type": "Feature", "properties": { "section": "Договор о благоустройстве пляжа", "num": 1, "name": "Андреевка", "area_ha": 1.61, "shoreline_m": 950.0, "swimzone_m": 300.0 }, "geometry": { "type": "Point", "coordinates": [ 33.550426182732153, 44.817854389182514 ] } },
{ "type": "Feature", "properties": { "section": "Договор о благоустройстве пляжа", "num": 2, "name": "Орловка-1", "area_ha": 5.18, "shoreline_m": 544.0, "swimzone_m": 200.0 }, "geometry": { "type": "Point", "coordinates": [ 33.548333808005765, 44.725643005988864 ] } },
{ "type": "Feature", "properties": { "section": "Договор о благоустройстве пляжа", "num": 3, "name": "Нахимовец", "area_ha": 1.84, "shoreline_m": 473.0, "swimzone_m": 473.0 }, "geometry": { "type": "Point", "coordinates": [ 33.54863227544849, 44.721973763667734 ] } },
{ "type": "Feature", "properties": { "section": "Договор о благоустройстве пляжа", "num": 4, "name": "Любимовка-2", "area_ha": 8.42, "shoreline_m": 1290.0, "swimzone_m": 1290.0 }, "geometry": { "type": "Point", "coordinates": [ 33.544109003325943, 44.662078139230147 ] } },
{ "type": "Feature", "properties": { "section": "Договор о благоустройстве пляжа", "num": 5, "name": "Любимовка-1", "area_ha": 0.82, "shoreline_m": 170.0, "swimzone_m": 170.0 }, "geometry": { "type": "Point", "coordinates": [ 33.542741500819716, 44.65854906602366 ] } },
{ "type": "Feature", "properties": { "section": "Договор о благоустройстве пляжа", "num": 6, "name": "Учкуевка", "area_ha": 9.52, "shoreline_m": 1520.0, "swimzone_m": 700.0 }, "geometry": { "type": "Point", "coordinates": [ 33.536292534220252, 44.645762614383514 ] } },
{ "type": "Feature", "properties": { "section": "Договор о благоустройстве пляжа", "num": 7, "name": "Ушакова балка", "area_ha": 0.06, "shoreline_m": 75.0, "swimzone_m": 70.0 }, "geometry": { "type": "Point", "coordinates": [ 33.546642451895693, 44.617098697823188 ] } },
{ "type": "Feature", "properties": { "section": "Договор о благоустройстве пляжа", "num": 8, "name": "Мыс Хрустальный", "area_ha": 0.76, "shoreline_m": 404.0, "swimzone_m": 350.0 }, "geometry": { "type": "Point", "coordinates": [ 33.519369180297197, 44.618075846211845 ] } },
{ "type": "Feature", "properties": { "section": "Договор о благоустройстве пляжа", "num": 9, "name": "Солнечный", "area_ha": 0.22, "shoreline_m": 108.0, "swimzone_m": 108.0 }, "geometry": { "type": "Point", "coordinates": [ 33.483487697150778, 44.61162989574543 ] } },
{ "type": "Feature", "properties": { "section": "Договор о благоустройстве пляжа", "num": 10, "name": "Песочный", "area_ha": 0.21, "shoreline_m": 48.0, "swimzone_m": 44.5 }, "geometry": { "type": "Point", "coordinates": [ 33.481714384955843, 44.611434309920014 ] } },
{ "type": "Feature", "properties": { "section": "Договор о благоустройстве пляжа", "num": 11, "name": "Парк Победы", "area_ha": 3.6, "shoreline_m": 457.0, "swimzone_m": 330.0 }, "geometry": { "type": "Point", "coordinates": [ 33.455852712800485, 44.609612095569162 ] } },
{ "type": "Feature", "properties": { "section": "Договор о благоустройстве пляжа", "num": 12, "name": "Омега", "area_ha": 3.71, "shoreline_m": 720.0, "swimzone_m": 620.0 }, "geometry": { "type": "Point", "coordinates": [ 33.444742290485792, 44.597378700650815 ] } },
{ "type": "Feature", "properties": { "section": "Договор о благоустройстве пляжа", "num": 13, "name": "Солдатский-1", "area_ha": 0.31, "shoreline_m": 50.0, "swimzone_m": 50.0 }, "geometry": { "type": "Point", "coordinates": [ 33.431314527544849, 44.596802743957475 ] } },
{ "type": "Feature", "properties": { "section": "Договор о благоустройстве пляжа", "num": 14, "name": "Солдатский-2", "area_ha": 0.65, "shoreline_m": 99.7, "swimzone_m": 99.7 }, "geometry": { "type": "Point", "coordinates": [ 33.430846360589257, 44.596724304984662 ] } },
{ "type": "Feature", "properties": { "section": "Договор о благоустройстве пляжа", "num": 15, "name": "Яшмовый", "area_ha": 1.14, "shoreline_m": 420.0, "swimzone_m": 217.0 }, "geometry": { "type": "Point", "coordinates": [ 33.506323578335234, 44.501511397598357 ] } },
{ "type": "Feature", "properties": { "section": "Договор о благоустройстве пляжа", "num": 16, "name": "Васили", "area_ha": 1.23, "shoreline_m": 214.0, "swimzone_m": 120.0 }, "geometry": { "type": "Point", "coordinates": [ 33.577898640095839, 44.490467886299228 ] } },
{ "type": "Feature", "properties": { "section": "Договор о благоустройстве пляжа", "num": 17, "name": "Городской", "area_ha": 0.08, "shoreline_m": 60.0, "swimzone_m": 60.0 }, "geometry": { "type": "Point", "coordinates": [ 33.597906114692741, 44.496752994837813 ] } },
{ "type": "Feature", "properties": { "section": "Договор о благоустройстве пляжа", "num": 18, "name": "Серебряный", "area_ha": 0.64, "shoreline_m": 200.0, "swimzone_m": 100.0 }, "geometry": { "type": "Point", "coordinates": [ 33.614790327455999, 44.48673173016239 ] } },
{ "type": "Feature", "properties": { "section": "Договор о благоустройстве пляжа", "num": 19, "name": "Золотой", "area_ha": 1.16, "shoreline_m": 363.0, "swimzone_m": 120.0 }, "geometry": { "type": "Point", "coordinates": [ 33.627540547589426, 44.478864703147494 ] } },
{ "type": "Feature", "properties": { "section": "Договор о благоустройстве пляжа", "num": 20, "name": "Дельфин", "area_ha": 0.12, "shoreline_m": 57.0, "swimzone_m": 46.0 }, "geometry": { "type": "Point", "coordinates": [ 33.714728196199836, 44.411672260991253 ] } },
{ "type": "Feature", "properties": { "section": "Договор о благоустройстве пляжа", "num": 21, "name": "Альбатрос", "area_ha": 1.89, "shoreline_m": 297.0, "swimzone_m": 297.0 }, "geometry": { "type": "Point", "coordinates": [ 33.541238557086608, 44.655292238348295 ] } },
{ "type": "Feature", "properties": { "section": "Договор о благоустройстве пляжа", "num": 22, "name": "Мраморный", "area_ha": 0.36, "shoreline_m": 187.0, "swimzone_m": 77.0 }, "geometry": { "type": "Point", "coordinates": [ 33.593724282744986, 44.495350879789108 ] } },
{ "type": "Feature", "properties": { "section": "Договор о благоустройстве пляжа", "num": 23, "name": "Наш Парус", "area_ha": 0.13, "shoreline_m": 421.0, "swimzone_m": 421.0 }, "geometry": { "type": "Point", "coordinates": [ 33.537130407340591, 44.780700683153313 ] } },
{ "type": "Feature", "properties": { "section": "Договор о благоустройстве пляжа", "num": 24, "name": "Звездный берег", "area_ha": 0.21, "shoreline_m": 69.0, "swimzone_m": 69.0 }, "geometry": { "type": "Point", "coordinates": [ 33.546782529207825, 44.731260633920108 ] } },
{ "type": "Feature", "properties": { "section": "Договор о благоустройстве пляжа", "num": 25, "name": "Вязовая роща", "area_ha": 0.18, "shoreline_m": 137.0, "swimzone_m": 137.0 }, "geometry": { "type": "Point", "coordinates": [ 33.548195547736213, 44.718630386628888 ] } },
{ "type": "Feature", "properties": { "section": "Иные правоустанавливающие документы", "num": 1, "name": "БО Батилиман", "area_ha": 0.1, "shoreline_m": 50.0, "swimzone_m": 50.0 }, "geometry": { "type": "Point", "coordinates": [ 33.68910145507482, 44.418077381623178 ] } },
{ "type": "Feature", "properties": { "section": "Иные правоустанавливающие документы", "num": 2, "name": "БО Изумруд", "area_ha": 0.97, "shoreline_m": 50.0, "swimzone_m": 50.0 }, "geometry": { "type": "Point", "coordinates": [ 33.718067395030864, 44.40727555424229 ] } },
{ "type": "Feature", "properties": { "section": "Иные правоустанавливающие документы", "num": 3, "name": "ДОЛ Алкадар", "area_ha": 0.22, "shoreline_m": 50.0, "swimzone_m": 50.0 }, "geometry": { "type": "Point", "coordinates": [ 33.542065063428069, 44.657061946999697 ] } },
{ "type": "Feature", "properties": { "section": "Иные правоустанавливающие документы", "num": 4, "name": "ДОЛ Радость", "area_ha": 0.98, "shoreline_m": 100.0, "swimzone_m": 100.0 }, "geometry": { "type": "Point", "coordinates": [ 33.544639691127458, 44.664774863663311 ] } },
{ "type": "Feature", "properties": { "section": "Иные правоустанавливающие документы", "num": 5, "name": "ФГБУ База отдыха Севастополь", "area_ha": 0.45, "shoreline_m": 240.0, "swimzone_m": 240.0 }, "geometry": { "type": "Point", "coordinates": [ 33.522389376792525, 44.638276255876491 ] } },
{ "type": "Feature", "properties": { "section": "Иные правоустанавливающие документы", "num": 6, "name": "ГБОУ ДО ДЮЦ Ласпи", "area_ha": 0.45, "shoreline_m": 117.0, "swimzone_m": 117.0 }, "geometry": { "type": "Point", "coordinates": [ 33.707879745174289, 44.418960406672404 ] } },
{ "type": "Feature", "properties": { "section": "Иные правоустанавливающие документы", "num": 7, "name": "Аквамарин", "area_ha": 0.18, "shoreline_m": 206.0, "swimzone_m": 206.0 }, "geometry": { "type": "Point", "coordinates": [ 33.459677825086665, 44.610160499492515 ] } },
{ "type": "Feature", "properties": { "section": "Иные правоустанавливающие документы", "num": 8, "name": "СОЦ Горизонт", "area_ha": 1.4, "shoreline_m": 290.0, "swimzone_m": 200.0 }, "geometry": { "type": "Point", "coordinates": [ 33.539103474118129, 44.65240073043595 ] } },
{ "type": "Feature", "properties": { "section": "Иные правоустанавливающие документы", "num": 9, "name": "Таврида", "area_ha": 0.33, "shoreline_m": 140.0, "swimzone_m": 140.0 }, "geometry": { "type": "Point", "coordinates": [ 33.690369485072303, 44.418366047678489 ] } },
{ "type": "Feature", "properties": { "section": "Иные правоустанавливающие документы", "num": 10, "name": "ДОЛ Чайка", "area_ha": 0.43, "shoreline_m": 200.0, "swimzone_m": 200.0 }, "geometry": { "type": "Point", "coordinates": [ 33.681971809325695, 44.416619426236409 ] } },
{ "type": "Feature", "properties": { "section": "Иные правоустанавливающие документы", "num": 11, "name": "Песочная бухта", "area_ha": 0.08, "shoreline_m": 120.0, "swimzone_m": 120.0 }, "geometry": { "type": "Point", "coordinates": [ 33.48238263070985, 44.611742256868951 ] } },
{ "type": "Feature", "properties": { "section": "Иные правоустанавливающие документы", "num": 12, "name": "База отдыха подводников КЧФ РФ", "area_ha": 0.09, "shoreline_m": 44.0, "swimzone_m": 44.0 }, "geometry": { "type": "Point", "coordinates": [ 33.687240726081534, 44.418059542302252 ] } }
]
}
